format  = 'OEF1.1'       ! file format
rectype = 'ML'           ! record type (1L/ML)
refsys  = ECLM J2000     ! default reference system
END_OF_HEADER
1220 T-2
! Equinoctial elements: a, e*sin(LP), e*cos(LP), tan(i/2)*sin(LN), tan(i/2)*cos(LN), mean long.
 EQU   3.20914650543356E+00  0.110053968357780  0.120912153107814 -0.002276271605081 -0.000434217896463  14.8748221921113
 MJD     41952.75782672 TDT
 MAG  14.440  0.150
!MOID  1.69240    0
!NODES  2.58150  1.77412
1220 T-2
! Equinoctial elements: a, e*sin(LP), e*cos(LP), tan(i/2)*sin(LN), tan(i/2)*cos(LN), mean long.
 EQU   3.21239567939282E+00  0.112055890334293  0.115100904513884 -0.002282762944200 -0.000400765231654  15.1697707812128
 MJD     41952.75782672 TDT
 MAG  13.976  0.150
! RMS    2.56668E-03   2.86597E-03   1.26278E-02   1.96167E-05   2.82988E-05   3.89363E-01
! EIG   3.29290E-07   4.49221E-07   2.08126E-05   3.29545E-04   5.62854E-03   1.37352E-02
! WEA   0.14435   0.08380  -0.90411  -0.00140  -0.00140   0.39334
 COV   6.587852239762619E-06  6.464505416500884E-06 -2.095455926196055E-05
 COV  -3.234079831328124E-08 -3.699324715872519E-08  9.898348618390569E-04
 COV   8.213768544953180E-06 -8.280970707586193E-06 -1.261035409148965E-08
 COV  -2.024085109726854E-08  9.762100374866833E-04  1.594621827809217E-04
 COV   2.468166932052058E-07  2.404199447738937E-07 -3.302976846352277E-03
 COV   3.848148675734936E-10  4.051427355457752E-10 -5.090962540317985E-06
 COV   8.008218486281188E-10 -5.781571995729270E-06  1.516038113166597E-01
 NOR   1.143691870458239E+07 -4.101041341913010E+09  6.058683709845494E+08
 NOR   1.910275730108083E+09 -1.542666207472073E+08  3.959108579829191E+07
 NOR   6.939605954700879E+12 -1.030023127025775E+12 -2.796087277858658E+09
 NOR   1.340331992582176E+10 -6.709945369733191E+10  1.528934245259199E+11
 NOR  -6.752268893151925E+09 -1.439727140624391E+09  9.959379875954901E+09
 NOR   4.926083760351606E+12 -3.798958446134811E+11  9.354882599014189E+06
 NOR   3.164467916908510E+10 -1.282172376339323E+08  6.487889663228458E+08
!MOID  1.70477    0
!NODES  2.58624  1.78095
